{"type": "FeatureCollection", "features": [ {"type": "Feature", "properties": {"norad_id": 41774, "name": "SKYSAT-C3", "group": "resource", "lat": -15.627749771420893, "lon": -160.03610573321615, "alt_km": 437.8607334341941, "timestamp": "2025-12-14T05:42:18.114973+00:00", "meta": {"OBJECT_NAME": "SKYSAT-C3", "OBJECT_ID": "2016-058E", "EPOCH": "2025-12-13T14:51:57.464640", "MEAN_MOTION": 15.44436683, "ECCENTRICITY": 0.00017198, "INCLINATION": 96.9308, "RA_OF_ASC_NODE": 21.3242, "ARG_OF_PERICENTER": 108.8076, "MEAN_ANOMALY": 251.336, "EPHEMERIS_TYPE": 0, "CLASSIFICATION_TYPE": "U", "NORAD_CAT_ID": 41774, "ELEMENT_SET_NO": 999, "REV_AT_EPOCH": 51739, "BSTAR": 0.00042345172, "MEAN_MOTION_DOT": 0.00019528, "MEAN_MOTION_DDOT": 0}, "tle": {"line1": "1 41774U 16058E   25347.61941510  .00019528  00000+0  42345-3 0  9996", "line2": "2 41774  96.9308  21.3242 0001719 108.8076 251.3360 15.44436683517391"}}, "geometry": {"type": "Point", "coordinates": [-160.03610573321615, -15.627749771420893]}}, {"type": "Feature", "properties": {"norad_id": 41785, "name": "ALSAT 1B", "group": "resource", "lat": 24.12741676394265, "lon": -3.548702036455032, "alt_km": 651.8026022246349, "timestamp": "2025-12-14T05:42:18.114983+00:00", "meta": {"OBJECT_NAME": "ALSAT 1B", "OBJECT_ID": "2016-059C", "EPOCH": "2025-12-13T14:54:45.592992", "MEAN_MOTION": 14.72078005, "ECCENTRICITY": 0.00107243, "INCLINATION": 97.7819, "RA_OF_ASC_NODE": 359.3731, "ARG_OF_PERICENTER": 100.59, "MEAN_ANOMALY": 259.6517, "EPHEMERIS_TYPE": 0, "CLASSIFICATION_TYPE": "U", "NORAD_CAT_ID": 41785, "ELEMENT_SET_NO": 999, "REV_AT_EPOCH": 49327, "BSTAR": 0.00017150394, "MEAN_MOTION_DOT": 1.032e-05, "MEAN_MOTION_DDOT": 0}, "tle": {"line1": "1 41785U 16059C   25347.62136103  .00001032  00000+0  17150-3 0  9991", "line2": "2 41785  97.7819 359.3731 0010724 100.5900 259.6517 14.72078005493272"}}, "geometry": {"type": "Point", "coordinates": [-3.548702036455032, 24.12741676394265]}}, {"type": "Feature", "properties": {"norad_id": 41787, "name": "PATHFINDER 1", "group": "resource", "lat": 75.33936088287682, "lon": -40.72017216175914, "alt_km": 641.3132515147827, "timestamp": "2025-12-14T05:42:18.114993+00:00", "meta": {"OBJECT_NAME": "PATHFINDER 1", "OBJECT_ID": "2016-059E", "EPOCH": "2025-12-13T14:37:29.529984", "MEAN_MOTION": 14.67323041, "ECCENTRICITY": 0.00300199, "INCLINATION": 97.8139, "RA_OF_ASC_NODE": 350.3426, "ARG_OF_PERICENTER": 78.5855, "MEAN_ANOMALY": 281.872, "EPHEMERIS_TYPE": 0, "CLASSIFICATION_TYPE": "U", "NORAD_CAT_ID": 41787, "ELEMENT_SET_NO": 999, "REV_AT_EPOCH": 49249, "BSTAR": 0.00021829656, "MEAN_MOTION_DOT": 1.194e-05, "MEAN_MOTION_DDOT": 0}, "tle": {"line1": "1 41787U 16059E   25347.60936956  .00001194  00000+0  21830-3 0  9994", "line2": "2 41787  97.8139 350.3426 0030019  78.5855 281.8720 14.67323041492497"}}, "geometry": {"type": "Point", "coordinates": [-40.72017216175914, 75.33936088287682]}}, {"type": "Feature", "properties": {"norad_id": 41790, "name": "SCATSAT 1", "group": "resource", "lat": 46.429462458750876, "lon": -126.412741311554, "alt_km": 589.6744129339659, "timestamp": "2025-12-14T05:42:18.115003+00:00", "meta": {"OBJECT_NAME": "SCATSAT 1", "OBJECT_ID": "2016-059H", "EPOCH": "2025-12-13T16:07:08.506272", "MEAN_MOTION": 14.78941778, "ECCENTRICITY": 0.00563057, "INCLINATION": 98.1466, "RA_OF_ASC_NODE": 44.3536, "ARG_OF_PERICENTER": 125.0499, "MEAN_ANOMALY": 235.6012, "EPHEMERIS_TYPE": 0, "CLASSIFICATION_TYPE": "U", "NORAD_CAT_ID": 41790, "ELEMENT_SET_NO": 999, "REV_AT_EPOCH": 7416, "BSTAR": 0.00031870268, "MEAN_MOTION_DOT": 2.358e-05, "MEAN_MOTION_DDOT": 0}, "tle": {"line1": "1 41790U 16059H   25347.67162623  .00002358  00000+0  31870-3 0  9995", "line2": "2 41790  98.1466  44.3536 0056305 125.0499 235.6012 14.78941778 74164"}}, "geometry": {"type": "Point", "coordinates": [-126.412741311554, 46.429462458750876]}}, {"type": "Feature", "properties": {"norad_id": 41875, "name": "GOKTURK 1A", "group": "resource", "lat": 48.89711871606029, "lon": 70.02789327665687, "alt_km": 679.2559980655569, "timestamp": "2025-12-14T05:42:18.115013+00:00", "meta": {"OBJECT_NAME": "GOKTURK 1A", "OBJECT_ID": "2016-073A", "EPOCH": "2025-12-13T15:58:39.885888", "MEAN_MOTION": 14.62782268, "ECCENTRICITY": 0.0001232, "INCLINATION": 98.1424, "RA_OF_ASC_NODE": 240.0186, "ARG_OF_PERICENTER": 79.7074, "MEAN_ANOMALY": 280.4267, "EPHEMERIS_TYPE": 0, "CLASSIFICATION_TYPE": "U", "NORAD_CAT_ID": 41875, "ELEMENT_SET_NO": 999, "REV_AT_EPOCH": 48170, "BSTAR": 0.00020618222, "MEAN_MOTION_DOT": 1.005e-05, "MEAN_MOTION_DDOT": 0}, "tle": {"line1": "1 41875U 16073A   25347.66573942  .00001005  00000+0  20618-3 0  9990", "line2": "2 41875  98.1424 240.0186 0001232  79.7074 280.4267 14.62782268481703"}}, "geometry": {"type": "Point", "coordinates": [70.02789327665687, 48.89711871606029]}}, {"type": "Feature", "properties": {"norad_id": 41877, "name": "RESOURCESAT-2A", "group": "resource", "lat": -41.92710787585658, "lon": 66.05862619341482, "alt_km": 826.1913542315033, "timestamp": "2025-12-14T05:42:18.115024+00:00", "meta": {"OBJECT_NAME": "RESOURCESAT-2A", "OBJECT_ID": "2016-074A", "EPOCH": "2025-12-13T16:23:28.501728", "MEAN_MOTION": 14.21601157, "ECCENTRICITY": 0.00011669, "INCLINATION": 98.7753, "RA_OF_ASC_NODE": 57.5331, "ARG_OF_PERICENTER": 250.1351, "MEAN_ANOMALY": 109.9701, "EPHEMERIS_TYPE": 0, "CLASSIFICATION_TYPE": "U", "NORAD_CAT_ID": 41877, "ELEMENT_SET_NO": 999, "REV_AT_EPOCH": 46794, "BSTAR": 0.00026631553, "MEAN_MOTION_DOT": 5.4e-06, "MEAN_MOTION_DDOT": 0}, "tle": {"line1": "1 41877U 16074A   25347.68296877  .00000540  00000+0  26632-3 0  9999", "line2": "2 41877  98.7753  57.5331 0001166 250.1351 109.9701 14.21601157467948"}}, "geometry": {"type": "Point", "coordinates": [66.05862619341482, -41.92710787585658]}}, {"type": "Feature", "properties": {"norad_id": 41948, "name": "CARTOSAT-2D", "group": "resource", "lat": 49.6815513948882, "lon": -125.4310102393923, "alt_km": 500.6340737610399, "timestamp": "2025-12-14T05:42:18.115034+00:00", "meta": {"OBJECT_NAME": "CARTOSAT-2D", "OBJECT_ID": "2017-008A", "EPOCH": "2025-12-13T16:29:26.221056", "MEAN_MOTION": 15.19280186, "ECCENTRICITY": 0.00046868, "INCLINATION": 97.439, "RA_OF_ASC_NODE": 45.1697, "ARG_OF_PERICENTER": 158.6694, "MEAN_ANOMALY": 201.4737, "EPHEMERIS_TYPE": 0, "CLASSIFICATION_TYPE": "U", "NORAD_CAT_ID": 41948, "ELEMENT_SET_NO": 999, "REV_AT_EPOCH": 48941, "BSTAR": 0.00049899004, "MEAN_MOTION_DOT": 0.00010468, "MEAN_MOTION_DDOT": 0}, "tle": {"line1": "1 41948U 17008A   25347.68710904  .00010468  00000+0  49899-3 0  9998", "line2": "2 41948  97.4390  45.1697 0004686 158.6694 201.4737 15.19280186489416"}}, "geometry": {"type": "Point", "coordinates": [-125.4310102393923, 49.6815513948882]}}, {"type": "Feature", "properties": {"norad_id": 42063, "name": "SENTINEL-2B", "group": "resource", "lat": -24.110540406952577, "lon": 64.53234109362222, "alt_km": 794.8342152076157, "timestamp": "2025-12-14T05:42:18.115044+00:00", "meta": {"OBJECT_NAME": "SENTINEL-2B", "OBJECT_ID": "2017-013A", "EPOCH": "2025-12-13T16:23:32.088192", "MEAN_MOTION": 14.30817185, "ECCENTRICITY": 0.00011513, "INCLINATION": 98.5711, "RA_OF_ASC_NODE": 60.1153, "ARG_OF_PERICENTER": 92.9463, "MEAN_ANOMALY": 267.1852, "EPHEMERIS_TYPE": 0, "CLASSIFICATION_TYPE": "U", "NORAD_CAT_ID": 42063, "ELEMENT_SET_NO": 999, "REV_AT_EPOCH": 45811, "BSTAR": 0.0001478502, "MEAN_MOTION_DOT": 3.44e-06, "MEAN_MOTION_DDOT": 0}, "tle": {"line1": "1 42063U 17013A   25347.68301028  .00000344  00000+0  14785-3 0  9994", "line2": "2 42063  98.5711  60.1153 0001151  92.9463 267.1852 14.30817185458113"}}, "geometry": {"type": "Point", "coordinates": [64.53234109362222, -24.110540406952577]}}, {"type": "Feature", "properties": {"norad_id": 42767, "name": "CARTOSAT-2E", "group": "resource", "lat": 39.70845690040438, "lon": 39.56134010458746, "alt_km": 506.58155018351044, "timestamp": "2025-12-14T05:42:18.115054+00:00", "meta": {"OBJECT_NAME": "CARTOSAT-2E", "OBJECT_ID": "2017-036C", "EPOCH": "2025-12-13T08:58:44.605632", "MEAN_MOTION": 15.19213643, "ECCENTRICITY": 0.00020915, "INCLINATION": 97.4556, "RA_OF_ASC_NODE": 44.9525, "ARG_OF_PERICENTER": 233.8764, "MEAN_ANOMALY": 126.2278, "EPHEMERIS_TYPE": 0, "CLASSIFICATION_TYPE": "U", "NORAD_CAT_ID": 42767, "ELEMENT_SET_NO": 999, "REV_AT_EPOCH": 46993, "BSTAR": 0.00052240021, "MEAN_MOTION_DOT": 0.00010939, "MEAN_MOTION_DDOT": 0}, "tle": {"line1": "1 42767U 17036C   25347.37412738  .00010939  00000+0  52240-3 0  9996", "line2": "2 42767  97.4556  44.9525 0002091 233.8764 126.2278 15.19213643469932"}}, "geometry": {"type": "Point", "coordinates": [39.56134010458746, 39.70845690040438]}}, {"type": "Feature", "properties": {"norad_id": 42920, "name": "FORMOSAT-5", "group": "resource", "lat": 81.05579271977592, "lon": -4.593879741988985, "alt_km": 721.3162959178071, "timestamp": "2025-12-14T05:42:18.115065+00:00", "meta": {"OBJECT_NAME": "FORMOSAT-5", "OBJECT_ID": "2017-049A", "EPOCH": "2025-12-13T16:04:02.964000", "MEAN_MOTION": 14.51006251, "ECCENTRICITY": 0.00098614, "INCLINATION": 98.2453, "RA_OF_ASC_NODE": 61.9701, "ARG_OF_PERICENTER": 292.3229, "MEAN_ANOMALY": 67.6921, "EPHEMERIS_TYPE": 0, "CLASSIFICATION_TYPE": "U", "NORAD_CAT_ID": 42920, "ELEMENT_SET_NO": 999, "REV_AT_EPOCH": 43977, "BSTAR": 0.0001040867, "MEAN_MOTION_DOT": 3.68e-06, "MEAN_MOTION_DDOT": 0}, "tle": {"line1": "1 42920U 17049A   25347.66947875  .00000368  00000+0  10409-3 0  9994", "line2": "2 42920  98.2453  61.9701 0009861 292.3229  67.6921 14.51006251439773"}}, "geometry": {"type": "Point", "coordinates": [-4.593879741988985, 81.05579271977592]}}]}